NORAD_CAT_ID,OBJECT_NAME,OBJECT_TYPE,EPOCH,MEAN_MOTION,ECCENTRICITY,INCLINATION,RA_OF_ASC_NODE,ARG_OF_PERICENTER,MEAN_ANOMALY,BSTAR,MEAN_MOTION_DOT,MEAN_MOTION_DDOT,TLE_LINE0,TLE_LINE1,TLE_LINE2,SEMIMAJOR_AXIS,PERIOD,APOGEE,PERIGEE,DECAYED
53870.0,STARLINK-4732,PAYLOAD,2024-03-11 13:57:02,15.08831284,7.93e-05,53.2166,292.6601,85.9624,274.1459,9.6275e-05,1.245e-05,0.0,0 STARLINK-4732,1 53870U 22114BE  24071.58127583  .00001245  00000-0  96275-4 0  9991,2 53870  53.2166 292.6601 0000793  85.9624 274.1459 15.08831284 83471,6917.907,95.438,540.321,539.223,0.0
53870.0,STARLINK-4732,PAYLOAD,2024-03-12 01:04:43,15.08845669,8.63e-05,53.2162,290.5789,82.2085,277.9005,6.7819e-06,-1.8e-06,0.0,0 STARLINK-4732,1 53870U 22114BE  24072.04495090 -.00000180  00000-0  67819-5 0  9995,2 53870  53.2162 290.5789 0000863  82.2085 277.9005 15.08845669 83009,6917.863,95.437,540.325,539.131,0.0
53870.0,STARLINK-4732,PAYLOAD,2024-03-12 07:26:16,15.08832518,6.96e-05,53.2152,289.3889,48.489,311.6162,0.00015769,2.222e-05,0.0,0 STARLINK-4732,1 53870U 22114BE  24072.30991574  .00002222  00000-0  15769-3 0  9995,2 53870  53.2152 289.3889 0000696  48.4890 311.6162 15.08832518 83040,6917.903,95.438,540.25,539.287,0.0
53870.0,STARLINK-4732,PAYLOAD,2024-03-13 07:17:03,15.08836963,0.0001524,53.2163,284.9288,85.042,275.0746,5.967e-05,6.62e-06,0.0,0 STARLINK-4732,1 53870U 22114BE  24073.30351830  .00000662  00000-0  59670-4 0  9997,2 53870  53.2163 284.9288 0001524  85.0420 275.0746 15.08836963 83738,6917.89,95.438,540.809,538.7,0.0
53870.0,STARLINK-4732,PAYLOAD,2024-03-13 21:35:31,15.0884628,0.0001044,53.219,282.2527,77.4558,282.6551,4.1114e-05,3.67e-06,0.0,0 STARLINK-4732,1 53870U 22114BE  24073.89967193  .00000367  00000-0  41114-4 0  9992,2 53870  53.2190 282.2527 0001044  77.4558 282.6551 15.08846280 83280,6917.861,95.437,540.448,539.004,0.0
53870.0,STARLINK-4732,PAYLOAD,2024-03-14 13:29:23,15.08837955,0.0001566,53.2159,279.2775,85.1093,275.0078,2.1793e-05,5.9e-07,0.0,0 STARLINK-4732,1 53870U 22114BE  24074.56207820  .00000059  00000-0  21793-4 0  9990,2 53870  53.2159 279.2775 0001566  85.1093 275.0078 15.08837955 83385,6917.887,95.438,540.835,538.668,0.0
53870.0,STARLINK-4732,PAYLOAD,2024-03-14 19:50:55,15.08834787,0.0001297,53.2162,278.0883,85.4227,274.6913,0.00011539,1.549e-05,0.0,0 STARLINK-4732,1 53870U 22114BE  24074.82703539  .00001549  00000-0  11539-3 0  9998,2 53870  53.2162 278.0883 0001297  85.4227 274.6913 15.08834787 83966,6917.896,95.438,540.659,538.864,0.0
53870.0,STARLINK-4732,PAYLOAD,2024-03-15 13:20:10,15.08842997,0.0001313,53.2161,274.8171,86.6976,273.4167,3.1143e-05,2.08e-06,0.0,0 STARLINK-4732,1 53870U 22114BE  24075.55567362  .00000208  00000-0  31143-4 0  9996,2 53870  53.2161 274.8171 0001313  86.6976 273.4167 15.08842997 84075,6917.871,95.437,540.645,538.828,0.0
53870.0,STARLINK-4732,PAYLOAD,2024-03-16 13:10:57,15.08838074,0.0001463,53.2158,270.3567,82.4453,277.6706,5.032e-05,5.13e-06,0.0,0 STARLINK-4732,1 53870U 22114BE  24076.54927642  .00000513  00000-0  50320-4 0  9994,2 53870  53.2158 270.3567 0001463  82.4453 277.6706 15.08838074 83683,6917.886,95.438,540.763,538.739,0.0
53870.0,STARLINK-4732,PAYLOAD,2024-03-16 17:57:07,15.08835527,0.0001341,53.2154,269.464,85.1551,274.9594,2.9789e-05,1.86e-06,0.0,0 STARLINK-4732,1 53870U 22114BE  24076.74799855  .00000186  00000-0  29789-4 0  9990,2 53870  53.2154 269.4640 0001341  85.1551 274.9594 15.08835527 84253,6917.894,95.438,540.687,538.831,0.0
53870.0,STARLINK-4732,PAYLOAD,2024-03-17 13:01:44,15.08836456,0.0001297,53.2161,265.8932,98.3452,261.7687,2.4528e-05,1.02e-06,0.0,0 STARLINK-4732,1 53870U 22114BE  24077.54287835  .00000102  00000-0  24528-4 0  9993,2 53870  53.2161 265.8932 0001297  98.3452 261.7687 15.08836456 84373,6917.891,95.438,540.653,538.859,0.0
53870.0,STARLINK-4732,PAYLOAD,2024-03-17 19:23:16,15.08842281,0.0001343,53.2171,264.7068,95.908,264.2065,6.7994e-05,7.94e-06,0.0,0 STARLINK-4732,1 53870U 22114BE  24077.80783389  .00000794  00000-0  67994-4 0  9998,2 53870  53.2171 264.7068 0001343  95.9080 264.2065 15.08842281 83879,6917.873,95.437,540.667,538.809,0.0
53870.0,STARLINK-4732,PAYLOAD,2024-03-18 11:17:08,15.08833455,0.0001504,53.2177,261.7371,104.3953,255.7207,6.5374e-05,7.52e-06,0.0,0 STARLINK-4732,1 53870U 22114BE  24078.47023999  .00000752  00000-0  65374-4 0  9990,2 53870  53.2177 261.7371 0001504 104.3953 255.7207 15.08833455 83979,6917.9,95.438,540.806,538.725,0.0
53870.0,STARLINK-4732,PAYLOAD,2024-03-19 20:40:13,15.08850723,0.0001424,53.2174,255.4897,94.1352,265.9803,0.00011314,1.514e-05,0.0,0 STARLINK-4732,1 53870U 22114BE  24079.86127122  .00001514  00000-0  11314-3 0  9998,2 53870  53.2174 255.4897 0001424  94.1352 265.9803 15.08850723 84185,6917.848,95.437,540.698,538.728,0.0
53870.0,STARLINK-4732,PAYLOAD,2024-03-20 18:55:39,15.08836268,0.0001327,53.2174,251.3243,82.9015,277.2129,4.5504e-05,4.36e-06,0.0,0 STARLINK-4732,1 53870U 22114BE  24080.78864668  .00000436  00000-0  45504-4 0  9995,2 53870  53.2174 251.3243 0001327  82.9015 277.2129 15.08836268 84329,6917.892,95.438,540.675,538.839,0.0
53870.0,STARLINK-4732,PAYLOAD,2024-03-21 10:49:30,15.08842831,0.0001281,53.2172,248.3517,83.0007,277.113,1.2413e-05,-9e-07,0.0,0 STARLINK-4732,1 53870U 22114BE  24081.45104508 -.00000090  00000-0  12413-4 0  9990,2 53870  53.2172 248.3517 0001281  83.0007 277.1130 15.08842831 84963,6917.872,95.437,540.623,538.851,0.0
53870.0,STARLINK-4732,PAYLOAD,2024-03-21 18:46:25,15.08850264,0.0001392,53.2161,246.8668,79.9749,280.14,0.00020264,2.939e-05,0.0,0 STARLINK-4732,1 53870U 22114BE  24081.78223908  .00002939  00000-0  20264-3 0  9997,2 53870  53.2161 246.8668 0001392  79.9749 280.1400 15.08850264 84470,6917.849,95.437,540.677,538.751,0.0
53870.0,STARLINK-4732,PAYLOAD,2024-03-22 20:12:35,15.08858515,0.0001581,53.217,242.1047,67.3929,292.723,0.00035849,5.425e-05,0.0,0 STARLINK-4732,1 53870U 22114BE  24082.84207254  .00005425  00000-0  35849-3 0  9999,2 53870  53.2170 242.1047 0001581  67.3929 292.7230 15.08858515 84636,6917.824,95.436,540.783,538.595,0.0
53870.0,STARLINK-4732,PAYLOAD,2024-03-23 13:41:50,15.08835655,0.0001381,53.2162,238.8379,84.0811,276.0339,-9.5515e-05,-1.808e-05,0.0,0 STARLINK-4732,1 53870U 22114BE  24083.57072209 -.00001808  00000-0 -95515-4 0  9990,2 53870  53.2162 238.8379 0001381  84.0811 276.0339 15.08835655 84748,6917.894,95.438,540.714,538.803,0.0
53870.0,STARLINK-4732,PAYLOAD,2024-03-23 20:03:22,15.08843533,0.0001471,53.2161,237.6442,103.0702,257.0454,3.141e-05,2.12e-06,0.0,0 STARLINK-4732,1 53870U 22114BE  24083.83567734  .00000212  00000-0  31410-4 0  9991,2 53870  53.2161 237.6442 0001471 103.0702 257.0454 15.08843533 85322,6917.87,95.437,540.752,538.717,0.0
53870.0,STARLINK-4732,PAYLOAD,2024-03-24 13:32:37,15.08843911,0.0001637,53.2149,234.3713,111.1635,248.9532,-2.4643e-06,-3.27e-06,0.0,0 STARLINK-4732,1 53870U 22114BE  24084.56432091 -.00000327  00000-0 -24643-5 0  9999,2 53870  53.2149 234.3713 0001637 111.1635 248.9532 15.08843911 85430,6917.868,95.437,540.866,538.601,0.0
53870.0,STARLINK-4732,PAYLOAD,2024-03-24 19:54:09,15.08858215,0.0001398,53.2159,233.1779,93.3478,266.7674,0.00057297,8.847e-05,0.0,0 STARLINK-4732,1 53870U 22114BE  24084.82928154  .00008847  00000-0  57297-3 0  9990,2 53870  53.2159 233.1779 0001398  93.3478 266.7674 15.08858215 85472,6917.825,95.436,540.657,538.723,0.0
53870.0,STARLINK-4732,PAYLOAD,2024-03-25 13:23:24,15.0885753,0.0001665,53.217,229.9111,107.9798,252.1375,0.00053724,8.277e-05,0.0,0 STARLINK-4732,1 53870U 22114BE  24085.55792066  .00008277  00000-0  53724-3 0  9990,2 53870  53.2170 229.9111 0001665 107.9798 252.1375 15.08857530 85041,6917.827,95.436,540.844,538.54,0.0
53870.0,STARLINK-4732,PAYLOAD,2024-03-25 16:34:10,15.08858574,0.0001298,53.2156,229.326,88.1212,271.9928,0.00053789,8.287e-05,0.0,0 STARLINK-4732,1 53870U 22114BE  24085.69039817  .00008287  00000-0  53789-3 0  9995,2 53870  53.2156 229.3260 0001298  88.1212 271.9928 15.08858574 85601,6917.824,95.436,540.587,538.791,0.0
53870.0,STARLINK-4732,PAYLOAD,2024-03-26 13:14:12,15.08825953,0.00013,53.2162,225.4487,87.7803,272.3338,-0.00022225,-3.822e-05,0.0,0 STARLINK-4732,1 53870U 22114BE  24086.55153451 -.00003822  00000-0 -22225-3 0  9995,2 53870  53.2162 225.4487 0001300  87.7803 272.3338 15.08825953 85190,6917.923,95.438,540.688,538.889,0.0
53870.0,STARLINK-4732,PAYLOAD,2024-03-26 14:49:35,15.08825093,0.0001342,53.2164,225.1512,90.8109,269.3037,-0.00022451,-3.858e-05,0.0,0 STARLINK-4732,1 53870U 22114BE  24086.61777544 -.00003858  00000-0 -22451-3 0  9997,2 53870  53.2164 225.1512 0001342  90.8109 269.3037 15.08825093 85746,6917.926,95.438,540.719,538.863,0.0
53870.0,STARLINK-4732,PAYLOAD,2024-03-26 16:24:59,15.08826082,0.0001343,53.2164,224.8569,83.5411,276.5734,-0.00018019,-3.153e-05,0.0,0 STARLINK-4732,1 53870U 22114BE  24086.68401957 -.00003153  00000-0 -18019-3 0  9999,2 53870  53.2164 224.8569 0001343  83.5411 276.5734 15.08826082 85754,6917.923,95.438,540.717,538.859,0.0
53870.0,STARLINK-4732,PAYLOAD,2024-03-27 13:04:59,15.08843679,0.0001021,53.2168,220.9976,123.7794,236.3295,0.00020178,2.925e-05,0.0,0 STARLINK-4732,1 53870U 22114BE  24087.54513224  .00002925  00000-0  20178-3 0  9999,2 53870  53.2168 220.9976 0001021 123.7794 236.3295 15.08843679 85343,6917.869,95.437,540.44,539.028,0.0
53870.0,STARLINK-4732,PAYLOAD,2024-03-27 14:40:22,15.08849777,0.0001729,53.2178,220.6986,103.2247,256.8938,0.00033456,5.042e-05,0.0,0 STARLINK-4732,1 53870U 22114BE  24087.61137172  .00005042  00000-0  33456-3 0  9997,2 53870  53.2178 220.6986 0001729 103.2247 256.8938 15.08849777 85899,6917.851,95.437,540.912,538.519,0.0
53870.0,STARLINK-4732,PAYLOAD,2024-03-27 16:15:45,15.08850366,0.0001691,53.2176,220.4012,101.6293,258.4889,0.00034868,5.267e-05,0.0,0 STARLINK-4732,1 53870U 22114BE  24087.67761145  .00005267  00000-0  34868-3 0  9993,2 53870  53.2176 220.4012 0001691 101.6293 258.4889 15.08850366 85907,6917.849,95.437,540.884,538.544,0.0
